ALOS (DAICHI)           
1 28931U 06002A   25351.73419158  .00001110  00000+0  19545-3 0  9994
2 28931  98.1098 303.1864 0001361 113.5739 246.5610 14.69501788 61443
H-2A R/B                
1 28932U 06002B   25361.84712722  .00012261  00000+0  63797-3 0  9998
2 28932  98.2324 137.8334 0054879 125.3470 235.2908 15.14879572 83557
RESURS-DK 1             
1 29228U 06021A   25361.58129862  .00003458  00000+0  20561-3 0  9996
2 29228  69.9338  63.4801 0006985 245.8811 114.1625 15.12246261 76623
CZ-4B R/B               
1 29507U 06046C   25361.68682858  .00005646  00000+0  29294-3 0  9996
2 29507  97.5715  41.7842 0034540 154.7287 205.5645 15.16021667 49134
CZ-2C R/B               
1 31114U 07010B   25361.79554029  .00000192  00000+0  10696-3 0  9992
2 31114  98.3974 113.6887 0059719 142.4804 218.0564 14.20216099969510
COSMO-SKYMED 1          
1 31598U 07023A   25361.83937916  .00004143  00000+0  37583-3 0  9991
2 31598  97.8837 187.3385 0001062  78.2958 281.8382 14.95877907  4163
COSMOS 2428             
1 31792U 07029A   25361.39349413  .00000263  00000+0  16703-3 0  9993
2 31792  70.9370 355.1122 0004510   3.1959 356.9190 14.12896269953880
SL-16 R/B               
1 31793U 07029B   25361.32804633  .00000298  00000+0  17909-3 0  9994
2 31793  70.9767 324.4912 0001887 267.0863 259.6969 14.14820273955133
KORONAS-FOTON           
1 33504U 09003A   25361.42652218  .00009362  00000+0  22199-3 0  9999
2 33504  82.4310 350.8832 0013182  62.9137 297.3453 15.41473438934602
CZ-2C R/B               
1 37731U 11030B   25361.79606647  .00001621  00000+0  21178-3 0  9999
2 37731  97.8435 315.5714 0051680 223.2870 197.0184 14.80948198779453
H-2A R/B                
1 38341U 12025E   25361.83810425  .00004419  00000+0  40707-3 0  9995
2 38341  98.4620 318.2351 0044738 185.6620 174.4098 14.94544184737483
SHIJIAN-16 (SJ-16)      
1 39358U 13057A   25361.89063975  .00005667  00000+0  55922-3 0  9997
2 39358  74.9735 320.9856 0017952 285.0760  74.8441 14.92039057660796
