CCSDS_OMM_VERS = 2.0
CREATION_DATE  = 
ORIGINATOR     = 

OBJECT_NAME    = ALOS (DAICHI)
OBJECT_ID      = 2006-002A
CENTER_NAME    = EARTH
REF_FRAME      = TEME
TIME_SYSTEM    = UTC
MEAN_ELEMENT_THEORY = SGP/SGP4

EPOCH          = 2025-12-17T17:37:14.152512
MEAN_MOTION    = 14.69501788
ECCENTRICITY   = .00013612
INCLINATION    = 98.1098
RA_OF_ASC_NODE = 303.1864
ARG_OF_PERICENTER = 113.5739
MEAN_ANOMALY   = 246.5610

EPHEMERIS_TYPE = 0
CLASSIFICATION_TYPE = U
NORAD_CAT_ID   = 28931
ELEMENT_SET_NO = 999
REV_AT_EPOCH   = 6144
BSTAR          = .19545051E-3
MEAN_MOTION_DOT = .111E-4
MEAN_MOTION_DDOT = 0

CCSDS_OMM_VERS = 2.0
CREATION_DATE  = 
ORIGINATOR     = 

OBJECT_NAME    = H-2A R/B
OBJECT_ID      = 2006-002B
CENTER_NAME    = EARTH
REF_FRAME      = TEME
TIME_SYSTEM    = UTC
MEAN_ELEMENT_THEORY = SGP/SGP4

EPOCH          = 2025-12-27T20:19:51.791808
MEAN_MOTION    = 15.14879572
ECCENTRICITY   = .0054879
INCLINATION    = 98.2324
RA_OF_ASC_NODE = 137.8334
ARG_OF_PERICENTER = 125.3470
MEAN_ANOMALY   = 235.2908

EPHEMERIS_TYPE = 0
CLASSIFICATION_TYPE = U
NORAD_CAT_ID   = 28932
ELEMENT_SET_NO = 999
REV_AT_EPOCH   = 8355
BSTAR          = .63797E-3
MEAN_MOTION_DOT = .12261E-3
MEAN_MOTION_DDOT = 0

CCSDS_OMM_VERS = 2.0
CREATION_DATE  = 
ORIGINATOR     = 

OBJECT_NAME    = RESURS-DK 1
OBJECT_ID      = 2006-021A
CENTER_NAME    = EARTH
REF_FRAME      = TEME
TIME_SYSTEM    = UTC
MEAN_ELEMENT_THEORY = SGP/SGP4

EPOCH          = 2025-12-27T13:57:04.200768
MEAN_MOTION    = 15.12246261
ECCENTRICITY   = .0006985
INCLINATION    = 69.9338
RA_OF_ASC_NODE = 63.4801
ARG_OF_PERICENTER = 245.8811
MEAN_ANOMALY   = 114.1625

EPHEMERIS_TYPE = 0
CLASSIFICATION_TYPE = U
NORAD_CAT_ID   = 29228
ELEMENT_SET_NO = 999
REV_AT_EPOCH   = 7662
BSTAR          = .20561E-3
MEAN_MOTION_DOT = .3458E-4
MEAN_MOTION_DDOT = 0

CCSDS_OMM_VERS = 2.0
CREATION_DATE  = 
ORIGINATOR     = 

OBJECT_NAME    = CZ-4B R/B
OBJECT_ID      = 2006-046C
CENTER_NAME    = EARTH
REF_FRAME      = TEME
TIME_SYSTEM    = UTC
MEAN_ELEMENT_THEORY = SGP/SGP4

EPOCH          = 2025-12-27T16:29:01.989312
MEAN_MOTION    = 15.16021667
ECCENTRICITY   = .003454
INCLINATION    = 97.5715
RA_OF_ASC_NODE = 41.7842
ARG_OF_PERICENTER = 154.7287
MEAN_ANOMALY   = 205.5645

EPHEMERIS_TYPE = 0
CLASSIFICATION_TYPE = U
NORAD_CAT_ID   = 29507
ELEMENT_SET_NO = 999
REV_AT_EPOCH   = 4913
BSTAR          = .29294E-3
MEAN_MOTION_DOT = .5646E-4
MEAN_MOTION_DDOT = 0

CCSDS_OMM_VERS = 2.0
CREATION_DATE  = 
ORIGINATOR     = 

OBJECT_NAME    = CZ-2C R/B
OBJECT_ID      = 2007-010B
CENTER_NAME    = EARTH
REF_FRAME      = TEME
TIME_SYSTEM    = UTC
MEAN_ELEMENT_THEORY = SGP/SGP4

EPOCH          = 2025-12-27T19:05:34.681056
MEAN_MOTION    = 14.20216099
ECCENTRICITY   = .0059719
INCLINATION    = 98.3974
RA_OF_ASC_NODE = 113.6887
ARG_OF_PERICENTER = 142.4804
MEAN_ANOMALY   = 218.0564

EPHEMERIS_TYPE = 0
CLASSIFICATION_TYPE = U
NORAD_CAT_ID   = 31114
ELEMENT_SET_NO = 999
REV_AT_EPOCH   = 96951
BSTAR          = .10696E-3
MEAN_MOTION_DOT = .192E-5
MEAN_MOTION_DDOT = 0

CCSDS_OMM_VERS = 2.0
CREATION_DATE  = 
ORIGINATOR     = 

OBJECT_NAME    = COSMO-SKYMED 1
OBJECT_ID      = 2007-023A
CENTER_NAME    = EARTH
REF_FRAME      = TEME
TIME_SYSTEM    = UTC
MEAN_ELEMENT_THEORY = SGP/SGP4

EPOCH          = 2025-12-27T20:08:42.359424
MEAN_MOTION    = 14.95877907
ECCENTRICITY   = .0001062
INCLINATION    = 97.8837
RA_OF_ASC_NODE = 187.3385
ARG_OF_PERICENTER = 78.2958
MEAN_ANOMALY   = 281.8382

EPHEMERIS_TYPE = 0
CLASSIFICATION_TYPE = U
NORAD_CAT_ID   = 31598
ELEMENT_SET_NO = 999
REV_AT_EPOCH   = 416
BSTAR          = .37583E-3
MEAN_MOTION_DOT = .4143E-4
MEAN_MOTION_DDOT = 0

CCSDS_OMM_VERS = 2.0
CREATION_DATE  = 
ORIGINATOR     = 

OBJECT_NAME    = COSMOS 2428
OBJECT_ID      = 2007-029A
CENTER_NAME    = EARTH
REF_FRAME      = TEME
TIME_SYSTEM    = UTC
MEAN_ELEMENT_THEORY = SGP/SGP4

EPOCH          = 2025-12-27T09:26:37.892832
MEAN_MOTION    = 14.12896269
ECCENTRICITY   = .000451
INCLINATION    = 70.9370
RA_OF_ASC_NODE = 355.1122
ARG_OF_PERICENTER = 3.1959
MEAN_ANOMALY   = 356.9190

EPHEMERIS_TYPE = 0
CLASSIFICATION_TYPE = U
NORAD_CAT_ID   = 31792
ELEMENT_SET_NO = 999
REV_AT_EPOCH   = 95388
BSTAR          = .16703E-3
MEAN_MOTION_DOT = .263E-5
MEAN_MOTION_DDOT = 0

CCSDS_OMM_VERS = 2.0
CREATION_DATE  = 
ORIGINATOR     = 

OBJECT_NAME    = SL-16 R/B
OBJECT_ID      = 2007-029B
CENTER_NAME    = EARTH
REF_FRAME      = TEME
TIME_SYSTEM    = UTC
MEAN_ELEMENT_THEORY = SGP/SGP4

EPOCH          = 2025-12-27T07:52:23.202912
MEAN_MOTION    = 14.14820273
ECCENTRICITY   = .0001887
INCLINATION    = 70.9767
RA_OF_ASC_NODE = 324.4912
ARG_OF_PERICENTER = 267.0863
MEAN_ANOMALY   = 259.6969

EPHEMERIS_TYPE = 0
CLASSIFICATION_TYPE = U
NORAD_CAT_ID   = 31793
ELEMENT_SET_NO = 999
REV_AT_EPOCH   = 95513
BSTAR          = .17909E-3
MEAN_MOTION_DOT = .298E-5
MEAN_MOTION_DDOT = 0

CCSDS_OMM_VERS = 2.0
CREATION_DATE  = 
ORIGINATOR     = 

OBJECT_NAME    = KORONAS-FOTON
OBJECT_ID      = 2009-003A
CENTER_NAME    = EARTH
REF_FRAME      = TEME
TIME_SYSTEM    = UTC
MEAN_ELEMENT_THEORY = SGP/SGP4

EPOCH          = 2025-12-27T10:14:11.516352
MEAN_MOTION    = 15.41473438
ECCENTRICITY   = .0013182
INCLINATION    = 82.4310
RA_OF_ASC_NODE = 350.8832
ARG_OF_PERICENTER = 62.9137
MEAN_ANOMALY   = 297.3453

EPHEMERIS_TYPE = 0
CLASSIFICATION_TYPE = U
NORAD_CAT_ID   = 33504
ELEMENT_SET_NO = 999
REV_AT_EPOCH   = 93460
BSTAR          = .22199E-3
MEAN_MOTION_DOT = .9362E-4
MEAN_MOTION_DDOT = 0

CCSDS_OMM_VERS = 2.0
CREATION_DATE  = 
ORIGINATOR     = 

OBJECT_NAME    = CZ-2C R/B
OBJECT_ID      = 2011-030B
CENTER_NAME    = EARTH
REF_FRAME      = TEME
TIME_SYSTEM    = UTC
MEAN_ELEMENT_THEORY = SGP/SGP4

EPOCH          = 2025-12-27T19:06:20.143008
MEAN_MOTION    = 14.80948198
ECCENTRICITY   = .005168
INCLINATION    = 97.8435
RA_OF_ASC_NODE = 315.5714
ARG_OF_PERICENTER = 223.2870
MEAN_ANOMALY   = 197.0184

EPHEMERIS_TYPE = 0
CLASSIFICATION_TYPE = U
NORAD_CAT_ID   = 37731
ELEMENT_SET_NO = 999
REV_AT_EPOCH   = 77945
BSTAR          = .21178E-3
MEAN_MOTION_DOT = .1621E-4
MEAN_MOTION_DDOT = 0

CCSDS_OMM_VERS = 2.0
CREATION_DATE  = 
ORIGINATOR     = 

OBJECT_NAME    = H-2A R/B
OBJECT_ID      = 2012-025E
CENTER_NAME    = EARTH
REF_FRAME      = TEME
TIME_SYSTEM    = UTC
MEAN_ELEMENT_THEORY = SGP/SGP4

EPOCH          = 2025-12-27T20:06:52.207200
MEAN_MOTION    = 14.94544184
ECCENTRICITY   = .0044738
INCLINATION    = 98.4620
RA_OF_ASC_NODE = 318.2351
ARG_OF_PERICENTER = 185.6620
MEAN_ANOMALY   = 174.4098

EPHEMERIS_TYPE = 0
CLASSIFICATION_TYPE = U
NORAD_CAT_ID   = 38341
ELEMENT_SET_NO = 999
REV_AT_EPOCH   = 73748
BSTAR          = .40707E-3
MEAN_MOTION_DOT = .4419E-4
MEAN_MOTION_DDOT = 0

CCSDS_OMM_VERS = 2.0
CREATION_DATE  = 
ORIGINATOR     = 

OBJECT_NAME    = SHIJIAN-16 (SJ-16)
OBJECT_ID      = 2013-057A
CENTER_NAME    = EARTH
REF_FRAME      = TEME
TIME_SYSTEM    = UTC
MEAN_ELEMENT_THEORY = SGP/SGP4

EPOCH          = 2025-12-27T21:22:31.274400
MEAN_MOTION    = 14.92039057
ECCENTRICITY   = .0017952
INCLINATION    = 74.9735
RA_OF_ASC_NODE = 320.9856
ARG_OF_PERICENTER = 285.0760
MEAN_ANOMALY   = 74.8441

EPHEMERIS_TYPE = 0
CLASSIFICATION_TYPE = U
NORAD_CAT_ID   = 39358
ELEMENT_SET_NO = 999
REV_AT_EPOCH   = 66079
BSTAR          = .55922E-3
MEAN_MOTION_DOT = .5667E-4
MEAN_MOTION_DDOT = 0

